G90 G21
M100
F4000
G1 Z6
G1 X-75.878 Y17.586 Z6 
G1 X-75.878 Y17.586 Z0 
G1 X-71.234 Y17.586 Z0 
G1 X-69.56 Y17.496 Z0 
G1 X-68.12 Y17.244 Z0 
G1 X-66.896 Y16.758 Z0 
G1 X-65.78 Y15.984 Z0 
G1 X-63.71 Y13.032 Z0 
G1 X-63.026 Y8.838 Z0 
G1 X-63.098 Y7.326 Z0 
G1 X-63.296 Y5.94 Z0 
G1 X-63.656 Y4.698 Z0 
G1 X-64.16 Y3.582 Z0 
G1 X-64.808 Y2.592 Z0 
G1 X-65.636 Y1.71 Z0 
G1 X-66.374 Y1.134 Z0 
G1 X-67.184 Y0.702 Z0 
G1 X-68.048 Y0.36 Z0 
G1 X-68.984 Y0.162 Z0 
G1 X-70.01 Y0.036 Z0 
G1 X-71.162 Y0 Z0 
G1 X-75.806 Y0 Z0 
G1 X-76.652 Y0.072 Z0 
G1 X-77.264 Y0.288 Z0 
G1 X-77.678 Y0.648 Z0 
G1 X-77.912 Y1.116 Z0 
G1 X-78.02 Y1.728 Z0 
G1 X-78.056 Y2.502 Z0 
G1 X-78.056 Y15.408 Z0 
G1 X-77.93 Y16.398 Z0 
G1 X-77.534 Y17.064 Z0 
G1 X-76.868 Y17.46 Z0 
G1 X-75.878 Y17.586 Z0 
G1 X-75.878 Y17.586 Z6 
M05 
G00 X-74.492 Y14.76 Z6 
M03 
G1 X-74.492 Y14.76 Z6 
G1 X-74.492 Y14.76 Z0 
G1 X-74.492 Y2.826 Z0 
G1 X-71.792 Y2.826 Z0 
G1 X-71 Y2.844 Z0 
G1 X-70.406 Y2.88 Z0 
G1 X-69.902 Y2.952 Z0 
G1 X-69.362 Y3.114 Z0 
G1 X-68.858 Y3.348 Z0 
G1 X-68.426 Y3.654 Z0 
G1 X-67.094 Y5.706 Z0 
G1 X-66.644 Y8.856 Z0 
G1 X-66.842 Y11.142 Z0 
G1 X-67.436 Y12.762 Z0 
G1 X-68.3 Y13.824 Z0 
G1 X-69.362 Y14.4 Z0 
G1 X-70.64 Y14.67 Z0 
G1 X-72.152 Y14.76 Z0 
G1 X-74.492 Y14.76 Z0 
G1 X-74.492 Y14.76 Z6 
M05 
G00 X-55.478 Y1.872 Z6 
M03 
G1 X-55.478 Y1.872 Z6 
G1 X-55.478 Y1.872 Z0 
G1 X-55.478 Y7.452 Z0 
G1 X-59.78 Y14.112 Z0 
G1 X-60.248 Y14.904 Z0 
G1 X-60.572 Y15.516 Z0 
G1 X-60.752 Y15.984 Z0 
G1 X-60.806 Y16.398 Z0 
G1 X-60.68 Y16.956 Z0 
G1 X-60.338 Y17.442 Z0 
G1 X-59.798 Y17.784 Z0 
G1 X-59.168 Y17.892 Z0 
G1 X-58.52 Y17.784 Z0 
G1 X-58.052 Y17.478 Z0 
G1 X-57.584 Y16.866 Z0 
G1 X-56.918 Y15.822 Z0 
G1 X-53.624 Y10.494 Z0 
G1 X-50.312 Y15.822 Z0 
G1 X-50.024 Y16.29 Z0 
G1 X-49.808 Y16.65 Z0 
G1 X-49.592 Y16.974 Z0 
G1 X-49.358 Y17.28 Z0 
G1 X-49.088 Y17.55 Z0 
G1 X-48.8 Y17.73 Z0 
G1 X-48.476 Y17.856 Z0 
G1 X-48.08 Y17.892 Z0 
G1 X-47.45 Y17.784 Z0 
G1 X-46.946 Y17.46 Z0 
G1 X-46.622 Y16.974 Z0 
G1 X-46.496 Y16.434 Z0 
G1 X-46.568 Y15.966 Z0 
G1 X-46.73 Y15.498 Z0 
G1 X-47.036 Y14.94 Z0 
G1 X-47.504 Y14.202 Z0 
G1 X-51.914 Y7.452 Z0 
G1 X-51.914 Y1.872 Z0 
G1 X-52.04 Y0.918 Z0 
G1 X-52.418 Y0.234 Z0 
G1 X-52.994 Y-0.162 Z0 
G1 X-53.696 Y-0.306 Z0 
G1 X-54.416 Y-0.18 Z0 
G1 X-54.992 Y0.234 Z0 
G1 X-55.352 Y0.9 Z0 
G1 X-55.478 Y1.872 Z0 
G1 X-55.478 Y1.872 Z6 
M05 
G00 X-38.444 Y15.75 Z6 
M03 
G1 X-38.444 Y15.75 Z6 
G1 X-38.444 Y15.75 Z0 
G1 X-31.604 Y5.382 Z0 
G1 X-31.604 Y15.858 Z0 
G1 X-31.496 Y16.74 Z0 
G1 X-31.172 Y17.388 Z0 
G1 X-30.65 Y17.766 Z0 
G1 X-29.984 Y17.892 Z0 
G1 X-29.3 Y17.766 Z0 
G1 X-28.778 Y17.388 Z0 
G1 X-28.436 Y16.74 Z0 
G1 X-28.328 Y15.858 Z0 
G1 X-28.328 Y2.016 Z0 
G1 X-28.814 Y0.27 Z0 
G1 X-30.254 Y-0.306 Z0 
G1 X-30.704 Y-0.27 Z0 
G1 X-31.118 Y-0.162 Z0 
G1 X-31.478 Y0.018 Z0 
G1 X-31.838 Y0.27 Z0 
G1 X-32.162 Y0.594 Z0 
G1 X-32.45 Y0.972 Z0 
G1 X-32.738 Y1.386 Z0 
G1 X-33.026 Y1.8 Z0 
G1 X-39.704 Y12.042 Z0 
G1 X-39.704 Y1.728 Z0 
G1 X-39.83 Y0.846 Z0 
G1 X-40.172 Y0.216 Z0 
G1 X-40.712 Y-0.18 Z0 
G1 X-41.378 Y-0.306 Z0 
G1 X-42.062 Y-0.18 Z0 
G1 X-42.602 Y0.216 Z0 
G1 X-42.944 Y0.864 Z0 
G1 X-43.052 Y1.728 Z0 
G1 X-43.052 Y15.318 Z0 
G1 X-42.998 Y16.074 Z0 
G1 X-42.854 Y16.668 Z0 
G1 X-42.548 Y17.154 Z0 
G1 X-42.098 Y17.55 Z0 
G1 X-41.558 Y17.802 Z0 
G1 X-40.964 Y17.892 Z0 
G1 X-40.514 Y17.856 Z0 
G1 X-40.136 Y17.73 Z0 
G1 X-39.812 Y17.55 Z0 
G1 X-39.542 Y17.316 Z0 
G1 X-39.272 Y17.01 Z0 
G1 X-39.002 Y16.632 Z0 
G1 X-38.732 Y16.2 Z0 
G1 X-38.444 Y15.75 Z0 
G1 X-38.444 Y15.75 Z6 
M05 
G00 X-16.992 Y17.892 Z6 
M03 
G1 X-16.992 Y17.892 Z6 
G1 X-16.992 Y17.892 Z0 
G1 X-14.454 Y17.622 Z0 
G1 X-12.294 Y16.776 Z0 
G1 X-10.566 Y15.444 Z0 
G1 X-9.324 Y13.626 Z0 
G1 X-8.568 Y11.394 Z0 
G1 X-8.316 Y8.82 Z0 
G1 X-8.46 Y6.876 Z0 
G1 X-8.874 Y5.112 Z0 
G1 X-9.558 Y3.546 Z0 
G1 X-10.53 Y2.214 Z0 
G1 X-11.754 Y1.134 Z0 
G1 X-13.248 Y0.342 Z0 
G1 X-14.958 Y-0.144 Z0 
G1 X-16.92 Y-0.306 Z0 
G1 X-18.882 Y-0.144 Z0 
G1 X-20.628 Y0.36 Z0 
G1 X-22.122 Y1.17 Z0 
G1 X-23.346 Y2.232 Z0 
G1 X-24.318 Y3.582 Z0 
G1 X-25.002 Y5.148 Z0 
G1 X-25.416 Y6.93 Z0 
G1 X-25.56 Y8.838 Z0 
G1 X-25.416 Y10.782 Z0 
G1 X-24.984 Y12.564 Z0 
G1 X-24.264 Y14.13 Z0 
G1 X-23.292 Y15.444 Z0 
G1 X-22.068 Y16.488 Z0 
G1 X-20.592 Y17.262 Z0 
G1 X-18.9 Y17.73 Z0 
G1 X-16.992 Y17.892 Z0 
G1 X-16.992 Y17.892 Z6 
M05 
G00 X-11.934 Y8.838 Z6 
M03 
G1 X-11.934 Y8.838 Z6 
G1 X-11.934 Y8.838 Z0 
G1 X-12.096 Y10.638 Z0 
G1 X-12.564 Y12.186 Z0 
G1 X-13.32 Y13.446 Z0 
G1 X-14.346 Y14.346 Z0 
G1 X-15.588 Y14.886 Z0 
G1 X-16.992 Y15.066 Z0 
G1 X-18.018 Y14.958 Z0 
G1 X-18.972 Y14.67 Z0 
G1 X-19.818 Y14.166 Z0 
G1 X-20.538 Y13.5 Z0 
G1 X-21.114 Y12.618 Z0 
G1 X-21.564 Y11.52 Z0 
G1 X-21.852 Y10.26 Z0 
G1 X-21.942 Y8.838 Z0 
G1 X-21.852 Y7.416 Z0 
G1 X-21.564 Y6.12 Z0 
G1 X-21.114 Y5.022 Z0 
G1 X-20.502 Y4.104 Z0 
G1 X-19.746 Y3.42 Z0 
G1 X-18.918 Y2.916 Z0 
G1 X-17.982 Y2.628 Z0 
G1 X-16.956 Y2.52 Z0 
G1 X-15.642 Y2.7 Z0 
G1 X-14.436 Y3.204 Z0 
G1 X-13.41 Y4.068 Z0 
G1 X-12.618 Y5.328 Z0 
G1 X-12.096 Y6.912 Z0 
G1 X-11.934 Y8.838 Z0 
G1 X-11.934 Y8.838 Z6 
M05 
G00 X1.366 Y2.646 Z6 
M03 
G1 X1.366 Y2.646 Z6 
G1 X1.366 Y2.646 Z0 
G1 X-1.442 Y13.86 Z0 
G1 X-1.442 Y1.71 Z0 
G1 X-1.55 Y0.828 Z0 
G1 X-1.892 Y0.198 Z0 
G1 X-2.414 Y-0.18 Z0 
G1 X-3.08 Y-0.306 Z0 
G1 X-3.746 Y-0.18 Z0 
G1 X-4.268 Y0.198 Z0 
G1 X-4.61 Y0.828 Z0 
G1 X-4.718 Y1.71 Z0 
G1 X-4.718 Y15.624 Z0 
G1 X-4.574 Y16.596 Z0 
G1 X-4.124 Y17.19 Z0 
G1 X-3.422 Y17.478 Z0 
G1 X-2.504 Y17.586 Z0 
G1 X-1.388 Y17.586 Z0 
G1 X-0.542 Y17.532 Z0 
G1 X0.052 Y17.406 Z0 
G1 X0.448 Y17.154 Z0 
G1 X0.718 Y16.758 Z0 
G1 X0.952 Y16.146 Z0 
G1 X1.204 Y15.228 Z0 
G1 X3.76 Y5.598 Z0 
G1 X6.316 Y15.228 Z0 
G1 X6.568 Y16.146 Z0 
G1 X6.802 Y16.758 Z0 
G1 X7.072 Y17.154 Z0 
G1 X7.468 Y17.406 Z0 
G1 X8.062 Y17.532 Z0 
G1 X8.908 Y17.586 Z0 
G1 X10.024 Y17.586 Z0 
G1 X10.942 Y17.478 Z0 
G1 X11.644 Y17.19 Z0 
G1 X12.094 Y16.596 Z0 
G1 X12.238 Y15.624 Z0 
G1 X12.238 Y1.71 Z0 
G1 X12.13 Y0.828 Z0 
G1 X11.788 Y0.198 Z0 
G1 X11.266 Y-0.18 Z0 
G1 X10.582 Y-0.306 Z0 
G1 X9.934 Y-0.18 Z0 
G1 X9.412 Y0.198 Z0 
G1 X9.07 Y0.828 Z0 
G1 X8.962 Y1.71 Z0 
G1 X8.962 Y13.86 Z0 
G1 X6.154 Y2.646 Z0 
G1 X5.902 Y1.692 Z0 
G1 X5.704 Y1.044 Z0 
G1 X5.452 Y0.558 Z0 
G1 X5.056 Y0.108 Z0 
G1 X4.498 Y-0.198 Z0 
G1 X3.76 Y-0.306 Z0 
G1 X3.184 Y-0.234 Z0 
G1 X2.698 Y-0.036 Z0 
G1 X2.32 Y0.27 Z0 
G1 X2.032 Y0.648 Z0 
G1 X1.816 Y1.098 Z0 
G1 X1.654 Y1.584 Z0 
G1 X1.51 Y2.106 Z0 
G1 X1.366 Y2.646 Z0 
G1 X1.366 Y2.646 Z6 
M05 
G00 X23.776 Y17.892 Z6 
M03 
G1 X23.776 Y17.892 Z6 
G1 X23.776 Y17.892 Z0 
G1 X26.314 Y17.622 Z0 
G1 X28.474 Y16.776 Z0 
G1 X30.202 Y15.444 Z0 
G1 X31.444 Y13.626 Z0 
G1 X32.2 Y11.394 Z0 
G1 X32.452 Y8.82 Z0 
G1 X32.308 Y6.876 Z0 
G1 X31.894 Y5.112 Z0 
G1 X31.21 Y3.546 Z0 
G1 X30.238 Y2.214 Z0 
G1 X29.014 Y1.134 Z0 
G1 X27.52 Y0.342 Z0 
G1 X25.81 Y-0.144 Z0 
G1 X23.848 Y-0.306 Z0 
G1 X21.886 Y-0.144 Z0 
G1 X20.14 Y0.36 Z0 
G1 X18.646 Y1.17 Z0 
G1 X17.422 Y2.232 Z0 
G1 X16.45 Y3.582 Z0 
G1 X15.766 Y5.148 Z0 
G1 X15.352 Y6.93 Z0 
G1 X15.208 Y8.838 Z0 
G1 X15.352 Y10.782 Z0 
G1 X15.784 Y12.564 Z0 
G1 X16.504 Y14.13 Z0 
G1 X17.476 Y15.444 Z0 
G1 X18.7 Y16.488 Z0 
G1 X20.176 Y17.262 Z0 
G1 X21.868 Y17.73 Z0 
G1 X23.776 Y17.892 Z0 
G1 X23.776 Y17.892 Z6 
M05 
G00 X28.834 Y8.838 Z6 
M03 
G1 X28.834 Y8.838 Z6 
G1 X28.834 Y8.838 Z0 
G1 X28.672 Y10.638 Z0 
G1 X28.204 Y12.186 Z0 
G1 X27.448 Y13.446 Z0 
G1 X26.422 Y14.346 Z0 
G1 X25.18 Y14.886 Z0 
G1 X23.776 Y15.066 Z0 
G1 X22.75 Y14.958 Z0 
G1 X21.796 Y14.67 Z0 
G1 X20.95 Y14.166 Z0 
G1 X20.23 Y13.5 Z0 
G1 X19.654 Y12.618 Z0 
G1 X19.204 Y11.52 Z0 
G1 X18.916 Y10.26 Z0 
G1 X18.826 Y8.838 Z0 
G1 X18.916 Y7.416 Z0 
G1 X19.204 Y6.12 Z0 
G1 X19.654 Y5.022 Z0 
G1 X20.266 Y4.104 Z0 
G1 X21.022 Y3.42 Z0 
G1 X21.85 Y2.916 Z0 
G1 X22.786 Y2.628 Z0 
G1 X23.812 Y2.52 Z0 
G1 X25.126 Y2.7 Z0 
G1 X26.332 Y3.204 Z0 
G1 X27.358 Y4.068 Z0 
G1 X28.15 Y5.328 Z0 
G1 X28.672 Y6.912 Z0 
G1 X28.834 Y8.838 Z0 
G1 X28.834 Y8.838 Z6 
M05 
G00 X47.642 Y14.634 Z6 
M03 
G1 X47.642 Y14.634 Z6 
G1 X47.642 Y14.634 Z0 
G1 X43.754 Y14.634 Z0 
G1 X43.754 Y1.872 Z0 
G1 X43.628 Y0.9 Z0 
G1 X43.268 Y0.234 Z0 
G1 X42.692 Y-0.18 Z0 
G1 X41.99 Y-0.306 Z0 
G1 X41.27 Y-0.18 Z0 
G1 X40.694 Y0.234 Z0 
G1 X40.316 Y0.918 Z0 
G1 X40.19 Y1.872 Z0 
G1 X40.19 Y14.634 Z0 
G1 X36.302 Y14.634 Z0 
G1 X35.51 Y14.742 Z0 
G1 X34.952 Y15.03 Z0 
G1 X34.61 Y15.498 Z0 
G1 X34.502 Y16.11 Z0 
G1 X34.61 Y16.722 Z0 
G1 X34.97 Y17.19 Z0 
G1 X35.528 Y17.478 Z0 
G1 X36.302 Y17.586 Z0 
G1 X47.642 Y17.586 Z0 
G1 X48.452 Y17.478 Z0 
G1 X49.01 Y17.172 Z0 
G1 X49.352 Y16.704 Z0 
G1 X49.46 Y16.11 Z0 
G1 X49.352 Y15.498 Z0 
G1 X49.01 Y15.03 Z0 
G1 X48.434 Y14.742 Z0 
G1 X47.642 Y14.634 Z0 
G1 X47.642 Y14.634 Z6 
M05 
G00 X53.046 Y1.872 Z6 
M03 
G1 X53.046 Y1.872 Z6 
G1 X53.046 Y1.872 Z0 
G1 X53.046 Y15.732 Z0 
G1 X53.174 Y16.668 Z0 
G1 X53.534 Y17.352 Z0 
G1 X54.11 Y17.748 Z0 
G1 X54.812 Y17.892 Z0 
G1 X55.53 Y17.766 Z0 
G1 X56.106 Y17.352 Z0 
G1 X56.486 Y16.686 Z0 
G1 X56.61 Y15.732 Z0 
G1 X56.61 Y1.872 Z0 
G1 X56.486 Y0.918 Z0 
G1 X56.106 Y0.234 Z0 
G1 X55.53 Y-0.162 Z0 
G1 X54.812 Y-0.306 Z0 
G1 X54.11 Y-0.162 Z0 
G1 X53.55 Y0.234 Z0 
G1 X53.174 Y0.918 Z0 
G1 X53.046 Y1.872 Z0 
G1 X53.046 Y1.872 Z6 
M05 
G00 X66.84 Y17.892 Z6 
M03 
G1 X66.84 Y17.892 Z6 
G1 X66.84 Y17.892 Z0 
G1 X69.378 Y17.622 Z0 
G1 X71.538 Y16.776 Z0 
G1 X73.266 Y15.444 Z0 
G1 X74.508 Y13.626 Z0 
G1 X75.264 Y11.394 Z0 
G1 X75.516 Y8.82 Z0 
G1 X75.372 Y6.876 Z0 
G1 X74.958 Y5.112 Z0 
G1 X74.274 Y3.546 Z0 
G1 X73.302 Y2.214 Z0 
G1 X72.078 Y1.134 Z0 
G1 X70.584 Y0.342 Z0 
G1 X68.874 Y-0.144 Z0 
G1 X66.912 Y-0.306 Z0 
G1 X64.95 Y-0.144 Z0 
G1 X63.204 Y0.36 Z0 
G1 X61.71 Y1.17 Z0 
G1 X60.486 Y2.232 Z0 
G1 X59.514 Y3.582 Z0 
G1 X58.83 Y5.148 Z0 
G1 X58.416 Y6.93 Z0 
G1 X58.272 Y8.838 Z0 
G1 X58.416 Y10.782 Z0 
G1 X58.848 Y12.564 Z0 
G1 X59.568 Y14.13 Z0 
G1 X60.54 Y15.444 Z0 
G1 X61.764 Y16.488 Z0 
G1 X63.24 Y17.262 Z0 
G1 X64.932 Y17.73 Z0 
G1 X66.84 Y17.892 Z0 
G1 X66.84 Y17.892 Z6 
M05 
G00 X71.898 Y8.838 Z6 
M03 
G1 X71.898 Y8.838 Z6 
G1 X71.898 Y8.838 Z0 
G1 X71.736 Y10.638 Z0 
G1 X71.268 Y12.186 Z0 
G1 X70.512 Y13.446 Z0 
G1 X69.486 Y14.346 Z0 
G1 X68.244 Y14.886 Z0 
G1 X66.84 Y15.066 Z0 
G1 X65.814 Y14.958 Z0 
G1 X64.86 Y14.67 Z0 
G1 X64.014 Y14.166 Z0 
G1 X63.294 Y13.5 Z0 
G1 X62.718 Y12.618 Z0 
G1 X62.268 Y11.52 Z0 
G1 X61.98 Y10.26 Z0 
G1 X61.89 Y8.838 Z0 
G1 X61.98 Y7.416 Z0 
G1 X62.268 Y6.12 Z0 
G1 X62.718 Y5.022 Z0 
G1 X63.33 Y4.104 Z0 
G1 X64.086 Y3.42 Z0 
G1 X64.914 Y2.916 Z0 
G1 X65.85 Y2.628 Z0 
G1 X66.876 Y2.52 Z0 
G1 X68.19 Y2.7 Z0 
G1 X69.396 Y3.204 Z0 
G1 X70.422 Y4.068 Z0 
G1 X71.214 Y5.328 Z0 
G1 X71.736 Y6.912 Z0 
G1 X71.898 Y8.838 Z0 
G1 X71.898 Y8.838 Z6 
M05 
G00 X83.92 Y15.75 Z6 
M03 
G1 X83.92 Y15.75 Z6 
G1 X83.92 Y15.75 Z0 
G1 X90.76 Y5.382 Z0 
G1 X90.76 Y15.858 Z0 
G1 X90.868 Y16.74 Z0 
G1 X91.192 Y17.388 Z0 
G1 X91.714 Y17.766 Z0 
G1 X92.38 Y17.892 Z0 
G1 X93.064 Y17.766 Z0 
G1 X93.586 Y17.388 Z0 
G1 X93.928 Y16.74 Z0 
G1 X94.036 Y15.858 Z0 
G1 X94.036 Y2.016 Z0 
G1 X93.55 Y0.27 Z0 
G1 X92.11 Y-0.306 Z0 
G1 X91.66 Y-0.27 Z0 
G1 X91.246 Y-0.162 Z0 
G1 X90.886 Y0.018 Z0 
G1 X90.526 Y0.27 Z0 
G1 X90.202 Y0.594 Z0 
G1 X89.914 Y0.972 Z0 
G1 X89.626 Y1.386 Z0 
G1 X89.338 Y1.8 Z0 
G1 X82.66 Y12.042 Z0 
G1 X82.66 Y1.728 Z0 
G1 X82.534 Y0.846 Z0 
G1 X82.192 Y0.216 Z0 
G1 X81.652 Y-0.18 Z0 
G1 X80.986 Y-0.306 Z0 
G1 X80.302 Y-0.18 Z0 
G1 X79.762 Y0.216 Z0 
G1 X79.42 Y0.864 Z0 
G1 X79.312 Y1.728 Z0 
G1 X79.312 Y15.318 Z0 
G1 X79.366 Y16.074 Z0 
G1 X79.51 Y16.668 Z0 
G1 X79.816 Y17.154 Z0 
G1 X80.266 Y17.55 Z0 
G1 X80.806 Y17.802 Z0 
G1 X81.4 Y17.892 Z0 
G1 X81.85 Y17.856 Z0 
G1 X82.228 Y17.73 Z0 
G1 X82.552 Y17.55 Z0 
G1 X82.822 Y17.316 Z0 
G1 X83.092 Y17.01 Z0 
G1 X83.362 Y16.632 Z0 
G1 X83.632 Y16.2 Z0 
G1 X83.92 Y15.75 Z0 
G1 X83.92 Y15.75 Z16 
G53 X0 Y-30
M05 
M2 
